{"fetched_at":"2026-07-10T07:59:00.374Z","source":"https://celestrak.org/NORAD/elements/gp.php?NAME=GHGSAT&FORMAT=JSON","constellation":"ghgsat","records":[{"OBJECT_NAME":"GHGSAT-C1","OBJECT_ID":"2020-061G","EPOCH":"2026-07-09T19:42:56.196864","CLASSIFICATION_TYPE":"U","MEAN_MOTION":15.73131839,"ECCENTRICITY":0.0000577,"INCLINATION":97.2092,"RA_OF_ASC_NODE":276.7161,"ARG_OF_PERICENTER":171.5435,"MEAN_ANOMALY":188.5839,"EPHEMERIS_TYPE":0,"NORAD_CAT_ID":46278,"ELEMENT_SET_NO":999,"REV_AT_EPOCH":32703,"BSTAR":0.00022163,"MEAN_MOTION_DOT":0.00030248,"MEAN_MOTION_DDOT":0},{"OBJECT_NAME":"GHGSAT-C2","OBJECT_ID":"2021-006DA","EPOCH":"2026-07-08T16:28:01.349472","CLASSIFICATION_TYPE":"U","MEAN_MOTION":15.38056166,"ECCENTRICITY":0.00068937,"INCLINATION":97.2138,"RA_OF_ASC_NODE":236.5828,"ARG_OF_PERICENTER":92.8516,"MEAN_ANOMALY":267.3518,"EPHEMERIS_TYPE":0,"NORAD_CAT_ID":47509,"ELEMENT_SET_NO":999,"REV_AT_EPOCH":30315,"BSTAR":0.00011922291,"MEAN_MOTION_DOT":0.00004386,"MEAN_MOTION_DDOT":0},{"OBJECT_NAME":"GHGSAT-C3","OBJECT_ID":"2022-057F","EPOCH":"2026-07-09T19:14:37.592736","CLASSIFICATION_TYPE":"U","MEAN_MOTION":15.346354,"ECCENTRICITY":0.0006736,"INCLINATION":97.6619,"RA_OF_ASC_NODE":337.313,"ARG_OF_PERICENTER":51.8614,"MEAN_ANOMALY":308.3235,"EPHEMERIS_TYPE":0,"NORAD_CAT_ID":52737,"ELEMENT_SET_NO":999,"REV_AT_EPOCH":22900,"BSTAR":0.00013932,"MEAN_MOTION_DOT":0.00004592,"MEAN_MOTION_DDOT":0},{"OBJECT_NAME":"GHGSAT-C5","OBJECT_ID":"2022-057N","EPOCH":"2026-07-09T20:11:10.091328","CLASSIFICATION_TYPE":"U","MEAN_MOTION":15.34613073,"ECCENTRICITY":0.0007407,"INCLINATION":97.6706,"RA_OF_ASC_NODE":338.954,"ARG_OF_PERICENTER":48.7675,"MEAN_ANOMALY":311.4205,"EPHEMERIS_TYPE":0,"NORAD_CAT_ID":52744,"ELEMENT_SET_NO":999,"REV_AT_EPOCH":22901,"BSTAR":0.00014083,"MEAN_MOTION_DOT":0.0000464,"MEAN_MOTION_DDOT":0},{"OBJECT_NAME":"GHGSAT-C4","OBJECT_ID":"2022-057Q","EPOCH":"2026-07-09T19:44:24.264384","CLASSIFICATION_TYPE":"U","MEAN_MOTION":15.34623506,"ECCENTRICITY":0.0006647,"INCLINATION":97.6545,"RA_OF_ASC_NODE":336.1428,"ARG_OF_PERICENTER":37.1013,"MEAN_ANOMALY":323.0688,"EPHEMERIS_TYPE":0,"NORAD_CAT_ID":52746,"ELEMENT_SET_NO":999,"REV_AT_EPOCH":22901,"BSTAR":0.00014461,"MEAN_MOTION_DOT":0.00004768,"MEAN_MOTION_DDOT":0},{"OBJECT_NAME":"GHGSAT-C8","OBJECT_ID":"2023-054J","EPOCH":"2026-07-09T20:05:31.861248","CLASSIFICATION_TYPE":"U","MEAN_MOTION":15.53657981,"ECCENTRICITY":0.0003733,"INCLINATION":97.2964,"RA_OF_ASC_NODE":100.454,"ARG_OF_PERICENTER":22.0951,"MEAN_ANOMALY":338.0463,"EPHEMERIS_TYPE":0,"NORAD_CAT_ID":56186,"ELEMENT_SET_NO":999,"REV_AT_EPOCH":18195,"BSTAR":0.00020245,"MEAN_MOTION_DOT":0.00012834,"MEAN_MOTION_DDOT":0},{"OBJECT_NAME":"GHGSAT-C6","OBJECT_ID":"2023-054AC","EPOCH":"2026-07-09T20:49:30.624384","CLASSIFICATION_TYPE":"U","MEAN_MOTION":15.5363648,"ECCENTRICITY":0.0003986,"INCLINATION":97.3026,"RA_OF_ASC_NODE":101.1837,"ARG_OF_PERICENTER":335.4342,"MEAN_ANOMALY":24.6721,"EPHEMERIS_TYPE":0,"NORAD_CAT_ID":56204,"ELEMENT_SET_NO":999,"REV_AT_EPOCH":18197,"BSTAR":0.00019452,"MEAN_MOTION_DOT":0.00012317,"MEAN_MOTION_DDOT":0},{"OBJECT_NAME":"GHGSAT-C7","OBJECT_ID":"2023-054AH","EPOCH":"2026-07-09T20:31:18.462720","CLASSIFICATION_TYPE":"U","MEAN_MOTION":15.5036844,"ECCENTRICITY":0.0005473,"INCLINATION":97.2978,"RA_OF_ASC_NODE":99.5191,"ARG_OF_PERICENTER":328.8592,"MEAN_ANOMALY":31.2334,"EPHEMERIS_TYPE":0,"NORAD_CAT_ID":56209,"ELEMENT_SET_NO":999,"REV_AT_EPOCH":18190,"BSTAR":0.0001488,"MEAN_MOTION_DOT":0.00008356,"MEAN_MOTION_DDOT":0},{"OBJECT_NAME":"GHGSAT-C12","OBJECT_ID":"2025-135B","EPOCH":"2026-07-09T18:10:32.333088","CLASSIFICATION_TYPE":"U","MEAN_MOTION":15.20423464,"ECCENTRICITY":0.0006491,"INCLINATION":97.4763,"RA_OF_ASC_NODE":305.3677,"ARG_OF_PERICENTER":95.5599,"MEAN_ANOMALY":264.6376,"EPHEMERIS_TYPE":0,"NORAD_CAT_ID":64529,"ELEMENT_SET_NO":999,"REV_AT_EPOCH":5825,"BSTAR":0.00010677,"MEAN_MOTION_DOT":0.00002259,"MEAN_MOTION_DDOT":0},{"OBJECT_NAME":"GHGSAT-C13","OBJECT_ID":"2025-135W","EPOCH":"2026-07-09T17:57:45.622080","CLASSIFICATION_TYPE":"U","MEAN_MOTION":15.21365214,"ECCENTRICITY":0.0002142,"INCLINATION":97.4791,"RA_OF_ASC_NODE":305.9643,"ARG_OF_PERICENTER":73.2497,"MEAN_ANOMALY":286.8974,"EPHEMERIS_TYPE":0,"NORAD_CAT_ID":64548,"ELEMENT_SET_NO":999,"REV_AT_EPOCH":5828,"BSTAR":0.00018586,"MEAN_MOTION_DOT":0.00004095,"MEAN_MOTION_DDOT":0}]}
