GHGSAT-C1               
1 46278U 20061G   26190.82148376  .00030248  00000+0  22163-3 0  9996
2 46278  97.2092 276.7161 0000577 171.5435 188.5839 15.73131839327031
GHGSAT-C2               
1 47509U 21006DA  26189.68612673  .00004386  00000+0  11922-3 0  9997
2 47509  97.2138 236.5828 0006893  92.8516 267.3518 15.38056166303153
GHGSAT-C3               
1 52737U 22057F   26190.80182399  .00004592  00000+0  13932-3 0  9998
2 52737  97.6619 337.3130 0006736  51.8614 308.3235 15.34635400229009
GHGSAT-C5               
1 52744U 22057N   26190.84108902  .00004640  00000+0  14083-3 0  9990
2 52744  97.6706 338.9540 0007407  48.7675 311.4205 15.34613073229019
GHGSAT-C4               
1 52746U 22057Q   26190.82250306  .00004768  00000+0  14461-3 0  9997
2 52746  97.6545 336.1428 0006647  37.1013 323.0688 15.34623506229016
GHGSAT-C8               
1 56186U 23054J   26190.83717432  .00012834  00000+0  20245-3 0  9996
2 56186  97.2964 100.4540 0003733  22.0951 338.0463 15.53657981181955
GHGSAT-C6               
1 56204U 23054AC  26190.86771556  .00012317  00000+0  19452-3 0  9991
2 56204  97.3026 101.1837 0003986 335.4342  24.6721 15.53636480181976
GHGSAT-C7               
1 56209U 23054AH  26190.85507480  .00008356  00000+0  14880-3 0  9996
2 56209  97.2978  99.5191 0005473 328.8592  31.2334 15.50368440181907
GHGSAT-C12              
1 64529U 25135B   26190.75731867  .00002259  00000+0  10677-3 0  9995
2 64529  97.4763 305.3677 0006491  95.5599 264.6376 15.20423464 58252
GHGSAT-C13              
1 64548U 25135W   26190.74844470  .00004095  00000+0  18586-3 0  9997
2 64548  97.4791 305.9643 0002142  73.2497 286.8974 15.21365214 58284
